NORAD_CAT_ID,OBJECT_NAME,OBJECT_TYPE,EPOCH,MEAN_MOTION,ECCENTRICITY,INCLINATION,RA_OF_ASC_NODE,ARG_OF_PERICENTER,MEAN_ANOMALY,BSTAR,MEAN_MOTION_DOT,MEAN_MOTION_DDOT,TLE_LINE0,TLE_LINE1,TLE_LINE2,SEMIMAJOR_AXIS,PERIOD,APOGEE,PERIGEE,DECAYED
52663.0,STARLINK-4037,PAYLOAD,2022-07-22 06:00:00,15.07964743,0.0001491,53.2196,348.5752,48.1423,226.5525,0.0012177,0.00018687,0.0,0 STARLINK-4037,1 52663U 22053H   22203.25001157  .00018687  00000-0  12177-2 0  9994,2 52663  53.2196 348.5752 0001491  48.1423 226.5525 15.07964743  1308,6920.557,95.493,543.4540000000002,541.39,0.0
52663.0,STARLINK-4037,PAYLOAD,2022-07-22 12:00:00,15.07975942,0.000157,53.2199,347.455,49.3893,143.215,0.0024711,0.00038335,0.0,0 STARLINK-4037,1 52663U 22053H   22203.50001157  .00038335  00000-0  24711-2 0  9991,2 52663  53.2199 347.4550 0001570  49.3893 143.2150 15.07975942 10848,6920.523,95.492,543.474,541.3009999999998,0.0
52663.0,STARLINK-4037,PAYLOAD,2022-07-22 22:00:00,15.08008685,0.0001761,53.2196,345.5882,43.6005,252.2184,0.0015414,0.00023777,0.0,0 STARLINK-4037,1 52663U 22053H   22203.91667824  .00023777  00000-0  15414-2 0  9999,2 52663  53.2196 345.5882 0001761  43.6005 252.2184 15.08008685  1307,6920.4230000000025,95.49,543.506,541.069,0.0
52663.0,STARLINK-4037,PAYLOAD,2022-07-23 14:00:01,15.08055846,0.0001696999999999,53.2195,342.5987,46.6218,270.47900000000004,-0.0042938,-0.00066555,0.0,0 STARLINK-4037,1 52663U 22053H   22204.58335648 -.00066555  00000-0 -42938-2 0  9993,2 52663  53.2195 342.5987 0001697  46.6218 270.4790 15.08055846 11000,6920.278,95.487,543.318,540.969,0.0
52663.0,STARLINK-4037,PAYLOAD,2022-07-23 22:00:00,15.08017872,0.0001729,53.2186,341.1048,40.5961,287.0684,0.0010970999999999,0.00016828,0.0,0 STARLINK-4037,1 52663U 22053H   22204.91667824  .00016828  00000-0  10971-2 0  9992,2 52663  53.2186 341.1048 0001729  40.5961 287.0684 15.08017872  1302,6920.394,95.49,543.456,541.063,0.0
52663.0,STARLINK-4037,PAYLOAD,2022-07-24 14:00:01,15.08047696,0.0001653,53.2185,338.1154,43.8127,305.0625,-0.0041036,-0.00063632,0.0,0 STARLINK-4037,1 52663U 22053H   22205.58334491 -.00063632  00000-0 -41036-2 0  9990,2 52663  53.2185 338.1154 0001653  43.8127 305.0625 15.08047696 11158,6920.303000000001,95.488,543.312,541.024,0.0
52663.0,STARLINK-4037,PAYLOAD,2022-07-24 22:00:00,15.08011572,0.0001669,53.2183,336.6212,37.7564,321.7428,9.3503e-05,1.169e-05,0.0,0 STARLINK-4037,1 52663U 22053H   22205.91667824  .00001169  00000-0  93503-4 0  9999,2 52663  53.2183 336.6212 0001669  37.7564 321.7428 15.08011572 11204,6920.4140000000025,95.49,543.434,541.124,0.0
52663.0,STARLINK-4037,PAYLOAD,2022-07-25 14:00:01,15.08028605,0.0001618,53.2188,333.6322,41.6242,339.0728,-0.0013338,-0.00020988,0.0,0 STARLINK-4037,1 52663U 22053H   22206.58334491 -.00020988  00000-0 -13338-2 0  9992,2 52663  53.2188 333.6322 0001618  41.6242 339.0728 15.08028605  1309,6920.361999999999,95.489,543.346,541.107,0.0
52663.0,STARLINK-4037,PAYLOAD,2022-07-25 22:00:00,15.0803045,0.0001652,53.2184,332.1378,38.1983,353.1059,-0.00054968,-8.832e-05,0.0,0 STARLINK-4037,1 52663U 22053H   22206.91667824 -.00008832  00000-0 -54968-3 0  9997,2 52663  53.2184 332.1378 0001652  38.1983 353.1059 15.08030450  1306,6920.356,95.489,543.364,541.078,0.0
52663.0,STARLINK-4037,PAYLOAD,2022-07-26 04:00:01,15.08005831,0.0001465999999999,53.2187,331.0157,43.695,265.6437,0.0024462,0.00037974,0.0,0 STARLINK-4037,1 52663U 22053H   22207.16668981  .00037974  00000-0  24462-2 0  9992,2 52663  53.2187 331.0157 0001466  43.6950 265.6437 15.08005831 11392,6920.431,95.49,543.311,541.2819999999998,0.0
52663.0,STARLINK-4037,PAYLOAD,2022-07-26 14:00:01,15.08041068,0.0001616,53.2186,329.1491,42.3094,10.231,-0.0013250999999999,-0.0002085999999999,0.0,0 STARLINK-4037,1 52663U 22053H   22207.58334491 -.00020860  00000-0 -13251-2 0  9996,2 52663  53.2186 329.1491 0001616  42.3094  10.2310 15.08041068  1308,6920.323,95.488,543.307,541.07,0.0
52663.0,STARLINK-4037,PAYLOAD,2022-07-26 20:00:01,15.08034825,0.0001673,53.2183,328.0287,39.02,291.4929,-0.00011384,-2.058e-05,0.0,0 STARLINK-4037,1 52663U 22053H   22207.83334491 -.00002058  00000-0 -11384-3 0  9999,2 52663  53.2183 328.0287 0001673  39.0200 291.4929 15.08034825 11494,6920.343000000003,95.489,543.365,541.05,0.0
52663.0,STARLINK-4037,PAYLOAD,2022-07-26 22:00:00,15.08057993,0.0001675,53.2183,327.6546,40.2748,22.889,-0.0037543,-0.00058299,0.0,0 STARLINK-4037,1 52663U 22053H   22207.91667824 -.00058299  00000-0 -37543-2 0  9999,2 52663  53.2183 327.6546 0001675  40.2748  22.8890 15.08057993  1303,6920.272,95.487,543.2959999999998,540.9780000000002,0.0
52663.0,STARLINK-4037,PAYLOAD,2022-07-27 14:00:01,15.08024016,0.0001705,53.2182,324.6661,45.8481,38.5482,-0.0012605,-0.00019851,0.0,0 STARLINK-4037,1 52663U 22053H   22208.58334491 -.00019851  00000-0 -12605-2 0  9997,2 52663  53.2182 324.6661 0001705  45.8481  38.5482 15.08024016  1307,6920.376,95.489,543.4209999999998,541.061,0.0
52663.0,STARLINK-4037,PAYLOAD,2022-07-27 22:00:00,15.08033926,0.0001708,53.2179,323.1715,43.2474,51.7539,-0.0012442,-0.00019604,0.0,0 STARLINK-4037,1 52663U 22053H   22208.91667824 -.00019604  00000-0 -12442-2 0  9998,2 52663  53.2179 323.1715 0001708  43.2474  51.7539 15.08033926  1304,6920.345,95.489,543.3919999999998,541.028,0.0
52663.0,STARLINK-4037,PAYLOAD,2022-07-28 06:00:00,15.08010885,0.0001569,53.218,321.6758,50.0539,55.5701,0.0025173,0.00039098,0.0,0 STARLINK-4037,1 52663U 22053H   22209.25001157  .00039098  00000-0  25173-2 0  9999,2 52663  53.2180 321.6758 0001569  50.0539  55.5701 15.08010885 11706,6920.416,95.49,543.367,541.195,0.0
52663.0,STARLINK-4037,PAYLOAD,2022-07-28 14:00:01,15.08038608,0.0001769,53.218,320.1832,46.1359,70.1019,-0.0015148,-0.00023795,0.0,0 STARLINK-4037,1 52663U 22053H   22209.58334491 -.00023795  00000-0 -15148-2 0  9995,2 52663  53.2180 320.1832 0001769  46.1359  70.1019 15.08038608  1304,6920.331,95.488,543.42,540.972,0.0
52663.0,STARLINK-4037,PAYLOAD,2022-07-28 22:00:00,15.08039877,0.0001802,53.2178,318.6884,45.2098,81.648,-0.0033937,-0.00052743,0.0,0 STARLINK-4037,1 52663U 22053H   22209.91667824 -.00052743  00000-0 -33937-2 0  9992,2 52663  53.2178 318.6884 0001802  45.2098  81.6480 15.08039877 11802,6920.3269999999975,95.488,543.439,540.945,0.0
52663.0,STARLINK-4037,PAYLOAD,2022-07-29 14:00:01,15.08015079,0.0001901,53.2179,315.7001,48.0185,100.0509,-0.00060143,-9.632e-05,0.0,0 STARLINK-4037,1 52663U 22053H   22210.58334491 -.00009632  00000-0 -60143-3 0  9997,2 52663  53.2179 315.7001 0001901  48.0185 100.0509 15.08015079 11907,6920.403,95.49,543.5840000000002,540.952,0.0
52663.0,STARLINK-4037,PAYLOAD,2022-07-29 22:00:00,15.08033428,0.0001872,53.2179,314.2052,46.4686,112.1979,-0.0017982,-0.00028172,0.0,0 STARLINK-4037,1 52663U 22053H   22210.91667824 -.00028172  00000-0 -17982-2 0  9995,2 52663  53.2179 314.2052 0001872  46.4686 112.1979 15.08033428  1308,6920.347,95.489,543.507,540.9159999999998,0.0
52663.0,STARLINK-4037,PAYLOAD,2022-07-30 06:00:00,15.08013965,0.0001788,53.2181,312.7097,52.5218,116.7601,0.001846,0.00028555,0.0,0 STARLINK-4037,1 52663U 22053H   22211.25001157  .00028555  00000-0  18460-2 0  9999,2 52663  53.2181 312.7097 0001788  52.5218 116.7601 15.08013965 12003,6920.406,95.49,543.509,541.034,0.0
52663.0,STARLINK-4037,PAYLOAD,2022-07-30 14:00:01,15.08024529,0.0001965,53.218,311.2171,47.2136,132.684,-0.00010846,-1.974e-05,0.0,0 STARLINK-4037,1 52663U 22053H   22211.58334491 -.00001974  00000-0 -10846-3 0  9994,2 52663  53.2180 311.2171 0001965  47.2136 132.6840 15.08024529  1307,6920.374,95.489,543.599,540.879,0.0
52663.0,STARLINK-4037,PAYLOAD,2022-07-30 20:00:01,15.08042731,0.0001943999999999,53.2179,310.0961,44.0568,53.7974,-0.0019474,-0.00030484,0.0,0 STARLINK-4037,1 52663U 22053H   22211.83334491 -.00030484  00000-0 -19474-2 0  9995,2 52663  53.2179 310.0961 0001944  44.0568  53.7974 15.08042731 12094,6920.318,95.488,543.529,540.8380000000002,0.0
52663.0,STARLINK-4037,PAYLOAD,2022-07-30 22:00:00,15.08058204,0.0001874,53.218,309.722,45.9138,144.5929,-0.0048606,-0.00075218,0.0,0 STARLINK-4037,1 52663U 22053H   22211.91667824 -.00075218  00000-0 -48606-2 0  9996,2 52663  53.2180 309.7220 0001874  45.9138 144.5929 15.08058204  1307,6920.271,95.487,543.433,540.839,0.0
52663.0,STARLINK-4037,PAYLOAD,2022-07-31 14:00:01,15.08007028,0.0001932,53.2182,306.7340000000001,44.7481,166.9844,0.00027533,4e-05,0.0,0 STARLINK-4037,1 52663U 22053H   22212.58334491  .00004000  00000-0  27533-3 0  9997,2 52663  53.2182 306.7340 0001932  44.7481 166.9844 15.08007028  1304,6920.428000000001,95.49,543.63,540.956,0.0
52663.0,STARLINK-4037,PAYLOAD,2022-07-31 20:00:01,15.08021758,0.0001913,53.2179,305.6128,43.1444,86.5314,-0.00053451,-8.595e-05,0.0,0 STARLINK-4037,1 52663U 22053H   22212.83334491 -.00008595  00000-0 -53451-3 0  9998,2 52663  53.2179 305.6128 0001913  43.1444  86.5314 15.08021758 12243,6920.3830000000025,95.489,543.571,540.924,0.0
52663.0,STARLINK-4037,PAYLOAD,2022-07-31 22:00:00,15.08032711,0.0001841,53.2181,305.2387,44.931,177.3938,-0.002191,-0.00034234,0.0,0 STARLINK-4037,1 52663U 22053H   22212.91667824 -.00034234  00000-0 -21910-2 0  9999,2 52663  53.2181 305.2387 0001841  44.9310 177.3938 15.08032711  1307,6920.349,95.489,543.488,540.94,0.0
52663.0,STARLINK-4037,PAYLOAD,2022-08-01 14:00:01,15.08016863,0.0001940999999999,53.2181,302.2508,44.7857,198.7664,0.00062589,9.467e-05,0.0,0 STARLINK-4037,1 52663U 22053H   22213.58334491  .00009467  00000-0  62589-3 0  9990,2 52663  53.2181 302.2508 0001941  44.7857 198.7664 15.08016863  1307,6920.398,95.49,543.606,540.919,0.0
52663.0,STARLINK-4037,PAYLOAD,2022-08-01 22:00:00,15.08043999,0.000182,53.2178,300.7553,45.4058,208.7537,-0.0022195,-0.00034684,0.0,0 STARLINK-4037,1 52663U 22053H   22213.91667824 -.00034684  00000-0 -22195-2 0  9995,2 52663  53.2178 300.7553 0001820  45.4058 208.7537 15.08043999 12418,6920.315,95.488,543.439,540.92,0.0
